[{"OBJECT_NAME":"FLOCK 4G-1","OBJECT_ID":"2025-009BK","EPOCH":"2026-03-09T18:13:41.778912","MEAN_MOTION":15.27421081,"ECCENTRICITY":0.00031801,"INCLINATION":97.4059,"RA_OF_ASC_NODE":151.3158,"ARG_OF_PERICENTER":323.1401,"MEAN_ANOMALY":36.9619,"EPHEMERIS_TYPE":0,"CLASSIFICATION_TYPE":"U","NORAD_CAT_ID":62666,"ELEMENT_SET_NO":999,"REV_AT_EPOCH":6372,"BSTAR":0.00050653644,"MEAN_MOTION_DOT":0.00013534,"MEAN_MOTION_DDOT":0},{"OBJECT_NAME":"STARLINK-34161","OBJECT_ID":"2025-101Z","EPOCH":"2026-03-09T03:29:47.907168","MEAN_MOTION":15.27599371,"ECCENTRICITY":0.00018075,"INCLINATION":43.0052,"RA_OF_ASC_NODE":0.8898,"ARG_OF_PERICENTER":273.3372,"MEAN_ANOMALY":86.7273,"EPHEMERIS_TYPE":0,"CLASSIFICATION_TYPE":"U","NORAD_CAT_ID":64017,"ELEMENT_SET_NO":999,"REV_AT_EPOCH":4697,"BSTAR":0.0010701507,"MEAN_MOTION_DOT":0.00029321,"MEAN_MOTION_DDOT":0}]
